IRIDIUM 63              
1 25286U 98021B   25289.37644294  .00000654  00000+0  21570-3 0  9990
2 25286  86.4022  31.2671 0001950  96.4410 263.7009 14.36662382441249
IRIDIUM 69              
1 25319U 98026A   25289.57211142  .00000935  00000+0  28445-3 0  9996
2 25319  86.3993  44.0896 0002579  33.4717 326.6645 14.41112627440547
IRIDIUM 71              
1 25320U 98026B   25289.56379046  .00000484  00000+0  14357-3 0  9991
2 25320  86.4002  38.7702 0003902  69.6606 290.5013 14.41262367441070
IRIDIUM 73              
1 25344U 98032C   25290.12832282  .00000946  00000+0  22989-3 0  9997
2 25344  86.4460 355.0406 0001717  81.7413 278.3987 14.51883761448252
IRIDIUM 82              
1 25467U 98051A   25289.40022992  .00057680  00000+0  13126-2 0  9991
2 25467  86.3638  49.8128 0072129 194.2648 165.6572 15.39980398442554
